IRIDIUM 119             
1 42959U 17061E   24235.62808672  .00000705  00000+0  24477-3 0  9997
2 42959  86.3969 302.5498 0002264  85.7341 274.4113 14.34218916359700
IRIDIUM 107             
1 42960U 17061F   24235.92619178  .00000742  00000+0  25777-3 0  9998
2 42960  86.3968 302.4422 0002130  88.6934 271.4506 14.34218262359751
IRIDIUM 136             
1 42962U 17061H   24235.54564345  .00000046  00000+0  93677-5 0  9996
2 42962  86.3969 302.5894 0002291  87.9902 272.1556 14.34218244359712
IRIDIUM 139             
1 42963U 17061J   24235.90082101  .00000734  00000+0  25499-3 0  9991
2 42963  86.3969 302.4918 0002061  83.5668 276.5762 14.34221394359778
IRIDIUM 125             
1 42964U 17061K   24235.60905902  .00000611  00000+0  21122-3 0  9995
2 42964  86.3972 302.6631 0002494  80.4688 279.6790 14.34220000359740
IRIDIUM 138             
1 43071U 17083B   24235.46901898  .00000324  00000+0  10854-3 0  9994
2 43071  86.3919 239.0615 0002636  84.9118 275.2378 14.34219842349005
